threatintelfeeder.ru,Real names,Aliases,UID,Country,bitcoin address,bank account number,longitude,latitude,Mobile telephone,email alias,height,weight,Traced IP
1,DANIEL IOSELIANI ,synonymteeming,ZXTJ4ZYTMYITHL2,UKR,1FbkmkK2y45hSJMB9bqzBqFrshJjraZ8EJ,672148749,42'77'53'35,43'57'23'6, 6241 1295,wilsonlambart@hotmail.com,82.9,82.9,176.206.108.223
2,ALEKSEY KOSLOV ,puppetsawt,TTZ84T6QJ04D11Q,RUS,148fxPngxgchFqfMdThW8wNNkuAG1gD9RX,543981401,42'80'49'35,43'10'92'6, 4706 2002,brancardos44@gmail.com,81.7,81.7,50.7.211.233
3,BORIS POPOV ,essentialpump,UPL5PYEBW4G9WL5,SWE,1Mp4NWVXWVP5CC1Ge6Ln3LZuzYa8PcpQiZ,3949056939,42'82'64'43,42'91'52'5, 6230 9227,solomonfred.usa@gmail.com,94.6,94.6,233.93.71.85
4,DANIL PETROV ,oxidationbanknote,FS0TQ8I47ASZQSP,BRA,1LSdbjp2pKVRx4GKX1BQyv2YFNN9uYhnVj,458865303,42'86'20'23,43'13'67'9, 4920 6309,revkelvinwills@aol.com,63.1,63.1,231.134.74.236
5,ARTUR IWANSKI ,snowmanspheroid,NQ96B8YJNE6CBJ7,GEO,1HCvnEYuEmDycB5926WuSgrmrgS57EYhE9,9510998532,42'89'98'53,43'67'84', 6179 5556,luckyday1@qq.com,65.1,65.1,6.78.173.177
6,KACPER KRAKOWSKI ,sugarycorona,SY68AUVBWBKHTPR,ITY,14rFC1dCEUow535PNXnS5uRXw5aG6c7D3S,6355669477,43'19'74',43'34'84'2, 4993 0731,bco1@hotmail.com,100,100,66.209.26.155
7,FEDOR ALENIN ,ladiesman,YLNUQTQSF2ZS0XX,RUS,1M21k3mn31mna21kjFjkH213jkfkjRldwAwD,9455825287,44¡¯42¡¯8,45'24'34'1, 6792 2681,ladiesman217@indisguise.com,99.9,99.9,41.15.122.114
8,GRIGORIY VASILY ,snorklingjed,GBV3NRYGTD8ZAF4,GER,1MMnZaakMwR1Gq3oKq11zWsuSxTeSpDAEY,4654769382,43'13'32'78,43'21'2'1, 5302 6612,moorestore@outlook.com,68.8,68.8,130.151.36.236
9,IGOR MIKHAILOV ,squealingengagement,I1PWEUE9TZ3X46D,BEL,19nM1JhGAWPyXaufUV9VHbbeSMdRMVSyMy,2680515234,43'17'13'42,42'98'65'8, 4541 9677,nortonfinancecmpy@outlook.com,61.7,61.7,215.6.79.74
10,ILIA PAVLOV ,thankfulcould,CRMFF5X8BP5NHKY,AUS,1B3m4F831f9u6ySnpYbUwgriJAgS3tuso5,558415520,43'19'32'88,43'57'34'2, 4781 6936,fwilliams683@gmail.com,77.4,77.4,90.117.85.251
11,ANDRIY MYKHAYLO ,jeercrayon,PCXFXH27XHQVTIC,UKR,1MdFkb8w8s3zFEy3PWtWwca8o7Ap7989xC,6667058147,43'21'60'14,43'52'6'3, 5317 6227,leungwilliam473@yahoo.com.hk,62,62,46.160.127.255
12,LEONTY SMIRNOV ,burnintrepid,GSIDLUVZ6M3V1E7,MON,1CFsYD24J4i1Z1h5DKqm6MY2BDiBnScvHS,9781954558,43'23'84'61,43'13'72', 8207 2803,peterwright01@outlook.com,107.2,107.2,56.116.252.34
13,DAVID CHICHUA ,preventicing,6XO0K0G47N2I792,GEO,1FqQLJyZVh1DJsDdzRLVpCoyrBLxT6tFF2,294902066,44¡¯22¡¯13¡¯8,43¡¯13¡¯63, 6220 8320,somamining@gmail.com,78.2,78.2,23.237.154.63
14,ROMAN VADOLOV ,mediumkincsem,OLTN58MZ9T5FS34,POL,1PpcLEYfHjJRRzPef414MRHm3V8rjTzaLB,325561885,43'28'21'94,43'43'13'9, 458-9362,uniorguinee@gmail.com,93.8,93.8,89.150.168.103
15,SASHA KUTIN ,primemallie,DUGE4OJ2FVR4ODE,BLR,1J2czf8KGS8DX9eUt7Q3tRGMmNdvLtVUzS,7852606946,43'33'24'59,43'51'61'1, 4909 8638,antwidarkbo@gmail.com,87.6,87.6,105.245.135.199
16,ABEL ALAVIDZE ,realistictags,AF7X0LXG27KA2EX,UKR,1Aw7mXtLMDjTBNcaqjv6cT935BEQQr5vRF,7162494226,43'33'42'46,42'86'47', 5365 1688,Raymondmorgan02@hotmail.com,72.1,72.1,95.41.174.23
17,BADR GOGOLADZE ,policybat,A73BNSOVNXXUHJI,RUS,19P9e8X4BhPGyCrqKWX4xfroAHZoxMnmWa,112804047,43'35'88'16,42'80'46'2, 4087 8886,dbtrcommitteeinf@hotmail.com,88.6,88.6,184.234.98.108
18,BADUUR BITSADZE ,dolphinvermilion,WEGJKNYBHQO1YG6,UKR,1GnYgH4V4kHdYEdHwAczRHXwqxdY7xars1,3260624422,43'47'54'23,42'86'19'2, 6199 1599,sediq.marin@aol.fr,99.8,99.8,87.143.234.169
19,BERIDZE ,gratefulhammered,AWGHX52UEZ6OB6Z,RUS,14soi7DstMDGhKsRcic7HWLREJJ4TMkyhb,2724372247,43'45'47'98,42'75'43'3, 8335 7036,ahmed.zama@rediffmail.com,77.4,77.4,123.190.40.68
20,BORIS GAKHARIA ,costagrudie,QZI18I8N971JAYA,SWE,186XnrNi2PaaaDkmR5Uy1ApJ6XEwjWyAGu,4204856292,43'19'87'8,42'93'63'1, 4559 5377,ahmedzama02@aol.fr,69.6,69.6,88.15.174.96
21,DANIEL IOSELIANI ,fiftygather,5H3D60FRBS7KKEZ,BRA,1H4wEvM35KhaYciwU6iucRLSVCicLBxzXc,898172217,43'18'17'13,43'56'8'7, 4548 9144,abdelsalem@ig.com.br,74.1,74.1,149.116.141.91
22,VLAD KUZNETSUN ,majiccoup,F6OSMZWNACE7VIS,GEO,1ByJpmX7Vs9rThJRPEaa6JLDmaMnKqpU2P,822724073,42'80'46'21,43'45'48', 9098 1379,97239287044@voip.brujla.net,67.1,67.1,9.213.53.125
23,VASSILY PUTIN ,whaleliquid,WMRVZ9QNDV9057H,ITY,1Pea8ctjhtQdq9UUi7u1Z4sQYFCwmEgvyt,535121512,43'33'24'59,43'19'88', 4045 7441,ha0953305@gmail.com,104.5,104.5,83.129.32.192
24,DAVIT CHICHUA ,ignorantfilm,1PUV4BXRA43I9VS,FRA,1Kg5wwuK7gSyHisvMu63eXUoxEdAjSBvv,1108073832,43'33'42'46,43'18'17'1, 6282 2216,w.westerunion-agencjy@msn.com,82.7,82.7,87.20.68.175
25,AFON ORLOV ,operandchoctaw,JDZOIOD02PN8C0F,GER,1E4ksHSJcnn2rCPwyCwKmxR9zKpMFYSdo4,991100735,43'51'61'10,43'22'91'2, 8288 0441,nihal.hamdy19@gmail.com,92.7,92.7,99.103.52.165
26,ELISO KHUJADZE ,childishbreeze,3NO2N32EXEI1FVX,BEL,1Jd5yaQKNoWa1sD2PBtoVrPByoVc1KoQ9Z,2434878687,42'86'47'0,42'71'53', 8210 6899,davidbaafi40@yahoo.com,75.6,75.6,56.95.232.241
27,GIORGI MZHAVANADZE ,clammyspiral,02E6EBCM2AUMBXD,UKR,19DawJn5GxomtGQRTXwTikbiSodW83NFdF,7490548551,37'13'15'1,53'63'90'3, 6126 7308,isa_will94@yahoo.ru,100.4,100.4,254.46.188.176
28,KAPANADZE ,bowlingbanging,68MJVJV9ZNIC3AW,CHN,156strKd9t2Yz9YtMEANXcSeKDKhg9dkMs,326658181,64'35'77'37,34'76'68'5, 8364 0116,iisabellawill@gmail.com,83.8,83.8,19.81.87.202
29,MAMEDOV ,hamburgermalboro,CVXPMHKRLNB3IVR,MON,12cNNN9vsZiqYprVCrXP5GaE1zgZszhAXW,160742021,44¡¯12¡¯18¡¯21,43¡¯13¡¯8¡¯3¡¯13, 4087 6139,mariammama103@zipmail.com.br,100.9,100.9,179.125.79.128
30,VALERI RUSIESHVILI ,sandboxlean,PKVD33RCO1CSI50,TWN,16J888afZGmpWkCgVwpJHem8bqYukGovZC,8838536805,44'26'69'54,38'15'28'9, 9423 2494,devoninchrist19@yahoo.co.jp,110.8,110.8,48.182.4.22
31,VEPKHIA ZHORZHOLIAN ,bluestrontium,KVMOAB3BLIU8EEZ,POL,13Pfw1omYcoLKWfGQy9EPSfHM5rfwcBokL,1626413193,67'38'76'58,63'36'15'8, 4085 1720,felicialuna42@zipmail.com.br,108.6,108.6,37.1.91.94
32,AFANAS FEDOROV ,chookhook,R3JOPDS8G51GYDL,BLR,18JFeHroxSfqKtJMKhQqSUj8waFzgvRPir,869887645,69'17'0'85,69'49'20'7, 5326 3217,mohammedhazan10@gmail.com,95,95,31.133.22.13
33,ADAMIK KOZIK ,cogmuddy,XCOWLZN9A4SJOA8,UKR,15dFgEvoD9LBfEqUW4bTZBEuzJPakrdUhU,2915300275,58'86'42'12,56'83'82'2, 4994 2133,hazanmohammed1@aol.fr,95.2,95.2,45.2.183.230
34,AGATA BACZKOWSKI ,chlorineaesop,9S9DF8BH23CTY07,RUS,1D2zMmWNEHvJs91L5qHSbHcJK6Q6pJ2Z1N,627161944,39'13'0'55,56'95'39'5, 4540 3670,arbadiallo@yahoo.com,66.6,66.6,250.125.158.190
35,AGNIESZKA JANDURA ,machinethen,J99848XGXJHOSWT,UKR,17CYV9DxrVgF8BWpFSM81ovs4pN9sexugi,8718909043,46'32'51'33,47'94'48'4, 4951 5123,rdossa@yeah.net,72.8,72.8,91.58.12.238
36,ANIA BACIK ,draughtcocoa,WLD2CA5BUS43WG3,RUS,1LUpvBGj5ewMrsct7ZKxyWyV6rxpjzFRB1,728480557,50'82'48'98,66'45'2'1, 3253 9904,icbank_international@aol.com,81.4,81.4,135.235.175.103
37,ARTUR IWANSKI ,avisskinny,2JAG2LFZ8UD2156,SWE,139TiNpXFNNAodWTCtEJuexAvy7nhKSUvc,7823126443,68'66'49'76,44'91'93'3, 5391 8979,soniakassala@hotmail.com,63.1,63.1,5.39.37.223
38,JAKUB JAKUBOWICZ ,foregoinghelper,WDU5DZRSV8S2RG3,BRA,1KuFsKGk1n1woxyq2pniQ3wyDGSx2eZxXc,224928317,70'41'33'83,73'22'83'1, 6713 4537,quadriwale2012@sify.com,71.6,71.6,139.205.151.248
39,JOANNA BAJEK ,hemingwaydangerous,TRBH27XET9J0WD8,GEO,1Ksb4EJEPVuayHL8JgviszYmtV6TLbqopf,634169440,69'58'23'20,40'20'71'7, 9090 1446,cindyosborne.bks@gmail.com,79.3,79.3,31.49.51.129
40,KACPER KRAKOWSKI ,menelausjasper,QB5CKR3ROCYITW7,ITY,1PH6mKPSsVDpxLXQxGwQCjB79h7oQKCvHX,8460835030,72'40'24'55,54'53'90'3, 4563 1473,markjerryloans@sify.com,61.9,61.9,5.39.31.159
41,VICTOR OLEKSANDR ,gilbertlebanese,UMYFHORX4C5IB6G,FRA,1C8ZgupX6xckZjHawDcjXQRHayd3DbPGo7,1509328181,36'33'99'6,43'88'58'3, 9340 2963,michelfoucault4@outlook.fr,88.4,88.4,23.234.132.22
42,KAMILA KOZLOSKI ,superbpinhooking,G2KMMPWTPMIEBC0,GER,1CRbzY2RvQPjckUFUTyRhixjraf51PBAx1,342389025,42'88'89'50,69'98'33'7, 8310 4765,efccnig014@yahoo.es,65.3,65.3,180.82.35.215
43,KRZYSZTOF HORNIK ,ocelotcheery,TSMT4HFKQDPJ8H9,BEL,19gEQ5Pk3dkMqRxXGzk8R4WN3v9oZTHSew,7201007688,51'74'61'98,39'49'4', 4554 2291,london7@pdcheif.com,98.1,98.1,23.106.30.11
44,YANIS KYRYLO ,glycemiclealt,PIAZ15RSWVBHWUP,AUS,14dSERekhDmxdzbWJPrkvpAW2XjcLiLVuJ,710685696,52'46'6'28,69'70'78'5, 5377 0274,adeya.peter@outlook.com,65.5,65.5,104.3.17.58
45,YUN PING ,infusepicture,KP5WN1Q68LDRVYO,CHN,1A5DF9dtgWy9HWRLUNNjTxx8jxhfEigQgA,9906535644,52'70'79'1,37'97'60'4, 4085 1939,soniakasala@hotmail.com,110.5,110.5,9.213.53.125
46,WEI ZHANG ,juicypolenta,V4H2YNP7EMQTAJR,MON,1BwZRvLM2unGMWsKoifVoNCU4za5vEGJcM,198549504,54'88'52'46,58'37'95'5, 5393 8654,jie062@yahoo.co.jp,69.4,69.4,93.2.69.80
47,LI ZHANG ,boothdredger,XMKMMIK863LQL87,TWN,12k3fVMcv8P4zJLEZfobsSvrb9YD2xzBXJ,482165847,48'36'21'7,66'25'6', 9927 2405,skynetdiplomaticexpress@gmail.com,70.2,70.2,93.64.56.107
48,YANG WU ,halladalewaste,JWP9THT7N6N3M1T,POL,1Kwnb8REhxJSU5knfPa4FmrxVhoDKeURyb,101259433,66'21'94'51,39'60'93'2, 8768 2711,clintonhre1020@yahoo.com,55.5,55.5,179.219.219.255
49,QIANG LEI ,stubbornswarm,4DOXFRNE9AORX9Y,BLR,1EUHVV31ebiPEnUxdj6FjzGXckKGt4PpxJ,313160465,40'86'13'93,66'99'89'8, 4938 6397,henreclenton1010@live.com,88.6,88.6,173.18.245.159
50,VANJA ALENIN ,yevgeniy,XE7LZRPBN9OGMKA,UKR,1L2GSUiat2PwQqu2mQ7FM6bNpVjsFVQyEm,2824435860,53'31'73'95,44'23'16'3, 4518 8917,Faourdav_01@yahoo.com,75,75,109.89.179.11
51,JUN CHAN ,coolbandanas,QL2HYN50PWLIFT0,RUS,13fyMAq2in9AgrY2TfbDmt5KZY3EdE1sqn,987332945,45'77'18'25,46'24'57'8, 4054 6954,favourdav0a@zipmail.com.br,72.7,72.7,222.134.217.138
52,JIE CHANG ,indiumfat,UXUZW29YD20RUKM,UKR,15J7hRLiMLfRp86yZWMZWwUNxLG845YHcy,921980922,47'83'19'92,74'58'33'9, 6195 4861,tgenpeterolu@qq.com,103.3,103.3,234.36.232.153
53,ZVIAD VARDANIDZE ,poakadreadful,MH47PS4UN9QND1C,RUS,1AMr8CTqpgJgriZXw6sywtb5Q2K4zgeuop,544041631,61'39'4'39,75'24'17'8, 6790 8902,vardan108@mixmail.ru,85.3,85.3,31.200.223.255
54,YAN LE ,windowslongfellow,CXW90Q3YVKYDX3C,SWE,1FRtwC64bWcMb7RGBcwLJTup6tYrCMs9ge,9414796525,39'10'76'11,75'15'53'8, 6293-6580,isa.williams19@gmail.com,70.2,70.2,206.103.5.140
55,ROMAN OLEKSIY ,muscovadofumbling,L6YEURHS0CDKJS0,BRA,1F2atA7Muf2Ay71fxfKXNUAMnFiZJChFQg,7025329703,75'91'95'8,74'75'26'9, 5345 2494,rebeccadessouki@yahoo.co.jp,84,84,95.114.229.93
56,IVAN ORLOV ,studyingforster,VEQMBLOUPOALRH4,GEO,1Hwjq7t961rsYTs3iFDnduqM3XPTUdiTTe,974269522,36'54'48'29,74'43'35'2, 4673 3624,frank001.smith@gmail.com,63,63,165.245.113.127
57,GREGORY STANISLAV ,mercedcobbler,E5X1WRZ3GR48BHF,ITY,15pAxcnYHxT4Ljn4DG1RjKH2aUdxYMtXjg,9036985056,46'77'64'93,74'25'69'9, 9016 9853,5b6a320c90d54e0aba98d74bee39323a@gmail.com,67.3,67.3,195.5.72.146
58,VEPKHIA ZHORZHOLIAN ,rumpflop,HTG5LYUNXMCN5B8,FRA,1NSXoRoP8g2uGzUB8YjUKC9uC5ZWP5TH4i,1079754512,56'31'7'7,74'21'84'9, 5320 2202,infocn66@gmail.com,93.8,93.8,109.29.20.222
59,DIMITRI OREST ,avichusing,OW5T1IEBQJFR9ZD,GER,1NQvcHQ8M9h9nrH7wojmkAKx1LNU9HiM3x,403608007,37'95'27'87,74'17'74'1, 4968 7468,mrpholusdatos002@gmail.com,61.9,61.9,177.99.33.58
60,AFANAS FEDOROV ,materialcardiff,L2LOP3FKOK1DEA8,BEL,173MqyKyBfomc3ry38hEoLCmPiErGApk16,2944761102,67'63'56'89,73'98'99'3, 4945 5885,pholusd456@aol.fr,69.4,69.4,37.147.216.13
61,BORIS SERHIY ,kaputnutritious,M1R7ZOT4XUTCSBX,UKR,1MB9Frr2sxsSG59ZH3EqoSrey4VrbnWMad,215110714,71'46'11'50,73'98'13', 6169 0300,smithjaneloancompany@gmail.com,62.5,62.5,37.46.215.25
62,YANIS KYRYLO ,hobbysledding,PL0UW4K9353LRB3,UKR,18KK4Btmhj39nRcNkFdUK97uDxUCnrtZW9,4619924415,62'32'79'42,73'79'65', 5316 0790,cooperativesvillagegoldminers@yahoo.com,99.8,99.8,37.139.191.12
63,SEBASTIAN HODOR ,recordedadvisor,P6QL1ZMQNSTIMDR,MON,1H2bipQLdggMZrTpa6hb1TA9RWpacrRFhi,431547181,67'53'71'66,72'95'26'6, 8232 6825,abubakasemenga@gmail.com,74.6,74.6,5.39.47.103
64,DANIEL MAMEDOV ,rhombusingot,1G1STTIUEV6EHL0,GEO,3Nxwenay9Z8Lc9JBiywExpnEFiLp6Afp8v,5895655149,46'42'56'25,72'93'48'8, 9059-2302,mrhalex45@yahoo.co.ru,104.1,104.1,5.39.110.16
65,VALERI ALIYEV ?,bobgadiv,GRZYXUJR678CRAR,RUS,1JCe8z4jJVNXSjohjM4i9Hh813dLCNx2Sy,620521953,34'48'61'35,72'93'1'1, 5337 8923,mal2umaru@yahoo.co.ru,58.3,58.3,37.144.248.67
66,JACOB CAMPBELL ,nunneyprolapse,B16RZ6M5ILB5RKU,BLR,1FeexV6bAHb8ybZjqQMjJrcCrHGW9sb6uF,5677211990,74'39'99'75,72'75'54'8, 6139 0969,joylentreya04@yahoo.fr,83.6,83.6,118.193.14.163
67,KOBE YUSEF ,limeylloyd,DBO5NSIZIDR421T,UKR,12tkqA9xSoowkzoERHMWNKsTey55YEBqkv,9314362604,46'70'44'98,72'56'26'7, 3093 1976,agentmarkbenson0@gmail.com,61.3,61.3,236.245.242.122
69,XIONG SATO ,souffleshooter,HF0HY8QR5Z7TAIN,UKR,1PeizMg76Cf96nUQrYg8xuoZWLQozU5zGW,6808440964,54'79'93'3,72'36'59'9, 4778 3938,vanessakone5@yeah.net,75.8,75.8,128.134.1.179
70,JACK SOUTER ,affirmedprancing,658ZZ01E2137V60,RUS,198aMn6ZYAczwrE5NvNTUMyJ5qkfy4g3Hi,7976573454,61'74'22'72,72'33'58'3, 4548 9558,GracaMachelMandela@presidency.com,67.3,67.3,55.215.247.8
71,TAJ FULTON ,wattpoisonous,PB0L4JUS97REU9J,SWE,1HLvaTs3zR3oev9ya7Pzp3GB9Gqfg6XYJT,949046949,38'49'16'87,72'23'52'1, 9053 0693,GracaMachelMandela@yahoo.co.za,64.6,64.6,38.250.245.80
72,RYDER HOARE ,ninerogle,NPSCR5FJQAHGPWY,BRA,1Kf33BbrJDuAVC91w9ACtRgf6KJrLWSkHV,743473310,38'57'39'19,72'17'18'8, 5355 5886,lotterybbc_lottery@yahoo.co.uk,92.8,92.8,21.58.129.220
74,CHARLIE SOKOLOV ,outlookperson,RZ40AQ7WBUK6TLE,ITY,12dUggmXPYsPVHaHr1DoW5J6bb6gvh4yZq,3553798157,66'80'47'29,72'48'3', 5332 7340,agentmorgan2013@mail.com,81.8,81.8,193.93.70.68
75,LAWRENCE PARROTT ,leadmourn,AW4VU7RVBZEXY9L,FRA,1JtpgqCf3SSeCeYWEDJjkfYFH7Ruhy4Vp1,6272962053,70'92'70',71'95'30'6, 5379 6338,ninagupta810@gmail.com,75.5,75.5,155.254.184.53
76,LOLA BERNACCHI ,elementwarks,GA8EN6NDUGCIFDQ,GER,1Du2jAQsBQnkkVZkN4oqC46tS78k7WMkVq,9521758201,35'46'47'45,71'80'78'6, 8758 3693,k.wattara@laposte.net,109.2,109.2,229.118.251.31
77,FLYNN LIEU ,pappustermite,UPGV7IK8M7OTLC4,BEL,1Le6MkiTvkorvC1JwYXzQUSfqA3ebzGW7N,1312582170,71'21'50'0,71'75'3', 9019 5764,kwattara@aol.com,97.5,97.5,232.181.32.243
78,GIOC FLOWER ,crowdstaking,94P0VLBTA9JV08H,AUS,1KbrSKrT3GeEruTuuYYUSQ35JwKbrAWJYm,837871441,46'85'8'49,71'74'41'9, 4515 8316,naomibrown1948@outlook.com,93,93,222.46.196.65
79,THOMAS FAVENC ,kamloopsaccess,QXLWPWB6ETBP11J,CHN,12tLs9c9RsALt4ockxa1hB4iTCTSmxj2me,3863472306,36'31'46'98,71'62'67'1, 9390 7936,naomibrown1948@gmail.com,110.5,110.5,162.21.79.61
80,KAI CHUTER ,cluelessgnat,OPKM04M9KY3JVKS,MON,15Z5YJaaNSxeynvr6uW6jQZLwq3n1Hu6RX,186325223,71'37'69'81,71'38'89'8, 6745 9965,tejash@yashrasayan.com,64.1,64.1,15.130.92.107
81,LUCAS TON ,burnhopeconcern,3B8TUVFJT52W8WK,TWN,1f1miYFQWTzdLiCBxtHHnNiW7WAWPUccr,988940965,71'32'78'21,62'60'44'5, 7623-7737,mrluwisavery@gmail.com,63.2,63.2,183.42.92.228
82,MEN REFSHAUGE ,zuzabummer,5ND12NIUC0T7EFK,POL,1P1iThxBH542Gmk1kZNXyji4E4iwpvSbrt,5378372348,71'27'90'27,62'57'41'5, 8384 2611,dsadams008@gmail.com,89.4,89.4,2.24.234.206
83,ZOE RHODES ,oudehush,R6ZL8ZUWBFNQ33Y,BLR,1CPaziTqeEixPoSFtJxu74uDGbpEAotZom,5058816024,71'21'44'80,62'49'47', 9561 6632,harsboy1973@gmail.com,110,110,161.112.170.8
84,NOAH DYMOCK ,laplaceshallow,5FDHKS7X95JG39F,UKR,1ucXXZQSEf4zny2HRwAQKtVpkLPTUKRtt,6038568530,70'84'41'15,62'39'59'5, 5366 0163,wpt17799@gmail.com,88.6,88.6,182.37.155.136
85,HARRY EVERGOOD ,centrezoilist,MCJ15SBJTFNXPSH,RUS,14YK4mzJGo5NKkNnmVJeuEAQftLt795Gec,370409221,70'76'66'67,62'34'55'1, 4053 7947,cabineedanssou@yahoo.fr,83,83,178.158.179.211
86,HUDSON WINTER-IRVING ,wormholeobedient,GKCIQA1NDGZLMJM,UKR,1BAFWQhH9pNkz3mZDQ1tWrtKkSHVCkc3fV,7036334274,70'66'99'11,62'33'95'4, 8453 0899,geromeberge@gmail.com,100.9,100.9,206.180.181.206
87,JOSHUA GIFFEN ,eruptionsfacilities,RIBXPAWKQCXXG2M,RUS,1FpqQnKQCgDkJFMC94JL8FpRyHTZ3uRVZ1,393141713,68'96'75'35,62'25'40'3, 9211 1679,Majidfuttaim@saudia.com,84.5,84.5,2.10.199.193
88,JORDAN MORDAUNT ,tangoclose,WBNOSXLRK1WOSIP,SWE,1F34duy2eeMz5mSrvFepVzy7Y1rBsnAyWC,9481967794,68'81'8'90,62'21'80'4, 4930 0801,kasikornbnkmanager4@libero.it,109.1,109.1,89.202.22.48
89,JAYDEN WAGNER ,lilycurl,37RF1NVMYV4KGDM,BRA,18k9tin39LKegFzHe8rxSgvJXDpuMriGJq,5773807297,68'55'61'26,62'17'12'3, 9006 6573,musabello519@yahoo.fr,71,71,61.28.126.163
90,JEREMY PROUD ,numericcompletion,BPEJZPFO8XH9M04,GEO,1GD8Qh7ebmvdaB8Ampcq8qZqNPr78nzjSP,247130869,67'82'43'80,62'10'95', 9284 7583,dhlo@admin.in.th,98.4,98.4,198.64.72.90
91,KEIRA NEIGHBOUR ,puncturedtrigger,YS5KMXH9PN36G1V,ITY,1FJuzzQFVMbiMGw6JtcXefdD64amy7mSCF,381533859,67'71'90'61,62'50'57', 4879-9501,delphinehakizimana14@zipmail.com.br,64.5,64.5,101.161.103.214
92,CODY GOSAK ,taodailthor,HEQNAIM8AP0CHF9,FRA,16HC2oNNjmhXgGqf4YYZwSfRK4meVpAGm7,6376014283,67'65'52'98,61'99'60'8, 6258 5122,katelordloancompany88@gmail.com,64.9,64.9,243.114.8.191
93,IGNACIJ RUATOKA ,studformal,9F8BB6Y5L5CEYT5,GER,1NoTNPjGtQPN3VX2as5vh747MZ6tKmQTeU,3503789669,67'64'3'88,61'76'65'8, 168-687,henryjames9090@gmail.com,53.8,53.8,27.113.51.74
94,AMELIE QUYNH ,scottyclopping,BUH7TZGYRD9BADH,BEL,1MbcZkfjkWdEEeC9r5pq5XRBDRcKUCsg9h,406738386,67'48'66'36,61'70'41'5, 4548 9591,danielsmithinvestment01@yahoo.com,86.6,86.6,190.111.39.138
95,NGA KRISTENSEN ,lunapackets,30Y1X1GJ3GXJ6Q7,AUS,1DzjE3ANaKLasY2n6e5ToJ4CQCXrvDvwsf,5169361173,66'92'31'26,61'70'19'4, 8951 9439,vivian.johnp24@gmail.com,96.3,96.3,99.145.146.163
96,APUTSIAQ MORTON ,liquidrigmarole,FAJG71MEF89TF37,CHN,1AYLzYN7SGu5FQLBTADBzqKm4b6Udt6Bw6,276906837,66'52'86'57,61'61'74'7, 6188 7869,drjohnsonadamscompany@mail.com,107.5,107.5,87.41.156.250
97,PATRICK ARIAN ,grimstingy,Y80S7NZQ14P70L4,MON,19ere2oJzJh81A5Q64SExDZYz54RvWHqZz,311408680,66'45'31'68,61'17'62'3, 6776 1367,fb43@kurtz.onmicrosoft.com,67.5,67.5,232.184.46.111
98,SAFIYYAH BINNIE ,sandalstuition,FE4ZNMZUD8CAPRC,TWN,18x7RBWLm7wcMpXRxihCsvPxHMFMsBFWrg,471925853,66'37'61'70,61'16'63', 5335 3347,delphinehakizimana11@zipmail.com.br,74.7,74.7,89.61.251.200
99,MICHAEL KOSA ,artisticargue,ZD1HNI38D5S88QF,POL,1kmGdkFoLatLh92EBBLkVPNT4sKbc3ryq,360421032,66'32'22'40,61'91'29', 9098 0929,mrs.swp@outlook.com,84.9,84.9,169.202.31.158
100,BLANKA LIAO ,northumberlandsnotty,XZ8LZ7D6VEMLBZS,BLR,1ALXLVNj7yKRU2Yki3K3yQGB5TBPof7jyo,288080351,66'28'18'58,61'48'34', 4528 0018,engr.saidsalem@workmail.co.za,57.8,57.8,23.12.49.91
101,YOU MACKRELL ,economistable,Z4I7DEFVKCCAR1Y,UKR,1PTYXwamXXgQoAhDbmUf98rY2Pg1pYXhin,6509050803,66'22'95'62,61'35'63', 4541 0336,suleadams342003@gmail.com,100.7,100.7,237.174.72.116
102,SETH STEVENSON ,circinuswatchful,ERGF1NCSRHRDET7,RUS,1ARWCREnmdKyHgNg2c9qih8UzRr4MMQEQS,5221062437,66'20'54'9,61'28'65', 5320 4291,info.soopercredit@qq.com,85.6,85.6,215.78.240.61
103,ARAN WALLACE ,minibusfine,RALU1SQUBO334JJ,UKR,1LDWDufjU5ATbozDZY3uChb7oPAbDaiB7K,6587188036,65'83'70'95,60'14'60'2, 4001 6888,aliceisdale@yahoo.com,86.4,86.4,1.217.151.25
104,ZACHARY HUNT ,wallabyiescrumpets,RQYYRH5HZGRZYYB,RUS,15MZvKjqeNz4AVz2QrHumQcRJq2JVHjFUz,3230378903,65'82'38'0,60'86'32', 6253 1148,elizabethjohnson134@hotmail.com,81.5,81.5,221.21.97.200
105,LUKE NGHIOM ,developermeasles,S35LAPVWIVTSK2R,SWE,18PWyzecS4QyT4SVHfA9f5w8Pf8UR3UN1K,393119513,65'80'69'72,60'62'98', 9005 1727,anikaebertus@yahoo.se,105.5,105.5,142.192.67.131
106,MY LANGER ,esteemedvega,BWR5RYZ9VJ8X5WH,BRA,13uraL1Maba7obbhkdB4pjsqMyvqrcTeeD,9626645628,65'35'87'77,59'54'13'1, 4969 0767,bayford_A@qq.com,96.4,96.4,170.185.14.11
107,DARCY DISNEY ,aroundsteamer,C7BISVVWRB5OS2V,GEO,1LwBdypLh3WPawK1WUqGZXgs4V8neHHqb7,9891565963,65'33'49'66,59'31'55'7, 4976 9451,hijabfarid@hotmail.com,82,82,244.87.252.118
108,SIENNA HAO ,gambiancleo,SQHK0RN5UMMVGFZ,ITY,1HjdiADVHew97yM8z4Vqs4iPwMyQHkkuhj,510892132,65'31'94'85,59'18'55'8, 6271 3536,zaringwarkipkalya@aol.fr,78.8,78.8,0.139.218.127
109,AN POWLETT ,facultiesglobe,QN7QUKR3BD01TXL,FRA,1GaUYQmgfJXYJBcwhQjsDXxh5bqu8aWwYa,861871456,65'80'48'1,58'81'38'8, 8483 9935,monahmeddd2014@gmail.com,90.8,90.8,100.107.27.106
110,COOPER BARROS ,gracieentries,A0EP0CVB85H9RHR,GER,18Hp8j2JMvwtPs1eqNaYEEVvuFpjQJRFVY,220978409,64'88'80'16,58'64'47'7, 3825 1772,hijab.farid@hotmail.com,76.9,76.9,102.172.155.19
111,MATEUS CH'IN ,snappingcepheus,XXY1OS3HNLIVMPT,BEL,16eb495TbiCRbRbZv4WBdaUvNGxUYJ4jed,2672641676,64'83'60'40,58'53'19', 6768 8522,dennis.melcher01@gmail.com,97.8,97.8,188.125.84.154
112,LI T'AO ,distressedoblong,HUMOYLUKWY6EIWN,AUS,1KwiztHT2ZkL9DLRYqK5Jpk9mPqGmMbKeB,682820652,64'83'53'12,58'22'15'8, 4546 0943,publicitycbn@gmail.com,83.1,83.1,143.96.93.112
113,GANG OSBURNE ,radiumlollipop,2UXEJLYWFFFV6OH,CHN,19HhmfxGsznL8K7wXjZiFnhqddQucgfZzB,3133538756,64'65'37'81,58'18'16'1, 4090 2240,michaelkruegerloancompany@gmail.com,86.1,86.1,22.103.60.165
114,ISABEL SCORFIELD ,iotaolivine,WAR926OYM1XPBS6,MON,18eY9oWL2mkXCL1VVwPme2NMmAVhX6EfyM,230268013,64'48'95'38,58'46'8', 3583 5510,ben525387@gmail.com,103.9,103.9,225.215.149.238
115,CALEB GRIFFIN ,daddybewildered,AT3UHV4GD29X24F,TWN,1E38XQRdXVhafXoAXwSZyoxPQ7R5HtmfrW,8450703204,64'46'34'34,57'99'67'5, 4327 2022,dgill_pwc@mynet.com,68.2,68.2,149.78.215.66
116,GEORGE WHITELAW ,goatfat,KFZCSJ8T5QLIB5X,POL,19DdkMxutkLGY67REFPLu51imfxG9CUJLD,8786844091,64'37'42'35,57'82'43'3,,dgill_pwc1@terra.com,93.6,93.6,0.54.99.92
117,LAUREN GADSDON ,stationaryrhombus,35ZG3PG9EUFNLDC,BLR,16KKWVEB87NDJo5jkFn4SuCo9Lv3zhniof,2333474092,64'27'31'88,57'75'22'8,,tuthpala12@gmail.com,68.4,68.4,176.204.184.203
119,KAI CZERWINSKI ,wrapnicked,H2AX9GRJGX4OYEQ,RUS,1Pa9Tytkq6aj7APgedvqYDgfLKY9qBxMPn,846523566,64'18'29'65,57'67'23'1,,christopher.white01@live.co.uk,64.8,64.8,111.20.193.144
120,ALEO CLEBURNE ,midnitetags,O54GEHORLE1ZBB4,UKR,1G5tLb4tTGwRTvr7hS2HFsxSRLFrRxS8rC,6130832141,64'16'7'59,57'59'40'1,,anitaloanfirm@live.com,87.2,87.2,172.239.180.79
122,KRISTINN SERRANO ,canalparrott,HH4LOGBEQ0DHKL1,SWE,1H4DbxrGW7n9v8Ycxb5RuJ4wznztqv79MS,903963906,64'15'49'8,57'30'1',,jonathanevans000@yahoo.com,82.9,82.9,218.196.130.59
123,MANRIC BERGMAN ,lilypadcheesy,I5PX26C8RVBIZRO,BRA,1HDNfSr5ExyGfe77GX681PPZtN2deoewfd,544376986,63'79'40'60,56'91'54'5,,jwatson494@yahoo.com,78.5,78.5,104.156.94.224
124,TIMOTHY MCCONACHY ,dunghillwhillan,IQRVR7TO8ZSL0D3,GEO,18hFBPU81kC8V4Dp4iwdwQHakKa5TW2ZkJ,804191581,63'54'6'45,56'81'54'4,,ec21buyer@gmail.com,68.9,68.9,8.138.235.56
125,CHRISTOPHER LIAO ,remarkableplan,87O435W0KH5TPYE,ITY,1gpSiT3Ju7Z99HYTZR2p6H2ybSEuRQXwW,9898061049,63'27'45'58,56'71'11'2,,sussanbien2012@gmail.com,74.1,74.1,172.154.133.132
126,CHAN WHITHAM ,gameteedge,UGYJ8LUK0N84N09,FRA,18XSK8h1avwT2J1gvP7tUvH7ncVwq5RUD5,172959349,63'15'49'88,56'65'30'3,,info@pavochenkofinance.tk,89.9,89.9,112.213.180.183
127,SAM DAWS ,mandrillfrowning,44VRSKR3ANN4XC3,GER,12mrdg2fk87Jmpaoh6dYUd2C2jsoAjYZDn,287977188,63'50'71'2,56'59'16'8,,honbarrijzdende@gmail.com,88.9,88.9,15.194.159.117
128,HAMISH GRIMMETT ,questionsdress,GUN7PYR5KKVPYHH,BEL,113u1XdMDSNjJYBEsAFyvtW92F4TXuRSj7,383672651,63'28'29'6,56'51'32'7,,ernestebi699@e-mail.ua,74.3,74.3,180.37.10.134
129,BAILEY WEMYSS ,stampcrabsarnia,WOKYSVT9LZ2ZTJ0,AUS,1CRjqcFsMqgeFm2vcs4cKYtaFbGrvUNYtD,6116854907,62'84'85'80,56'29'19'3,,siwei4489@yahoo.com.hk,106.6,106.6,98.241.40.142
130,LACHLAN HALE ,cupsquasar,KKU52X7OOFPBRMK,CHN,16oKJMcUZkDbq2tXDr9Fm2HwgBAkJPquyU,2532592982,62'71'31'27,56'27'85'1, 2916-513,peterkoffi.info@gmail.com,100.8,100.8,183.108.99.159
131,JOEL TARDENT ,bouncecheery,XV2YJBFL7QBX7TK,MON,1MsYcBU7c8tRztb1B1fGES2s1WJsiFGt4s,7323055687,28'58'96'59,38'38'42'5, 6763 7171,zenithbankplc106@yahoo.com,104.4,104.4,160.221.224.107
132,KAI FARROW ,guessinghartebeest,NBS8WGI0I3WB5XW,TWN,1JLyNH2eNTji5hVw4Rqct4QEkte9UbGqP9,3090058723,35'92'28'15,25'62'20'3, 9434 4877,fidelitybankplc505@aim.com,92.4,92.4,10.73.132.166
133,MATILDA BECKER ,ramscream,EKKNN25CH96RANV,POL,1DY5mnjeoZnW8eKesVTB5QcJeSoMn2ayN8,4747585893,42'59'14'62,36'26'4'6,,kymcrox03@gmail.com,109.6,109.6,252.141.4.94
134,HUNTER STEVENSON ,ringojackdaw,M2MXN797K7LQZRR,BLR,18cuc8LeptuYSCnCV7mTWkbWfviafWzgs7,1774501767,33'91'33'77,26'27'3', 5307 3680,esqharsmith2015@gmail.com,113.9,113.9,15.157.10.132
135,ERIC DRURY ,melodysports,X50GSSJHYEKTQ8Q,UKR,1Jzjx1J56gorBPRcA17wHvGx447YLisDW5,208261524,38'81'98'0,42'98'9'9, 5319 7827,facebooklottdepartment936@gmail.com,78.4,78.4,107.209.220.119
136,ZOE DE ,widdledanalyst,XBAHSJS29OVSSS1,RUS,1FgmSdxZjAwWDoTwy235fHk7XY1Ea7neyF,8258899015,26'25'42'64,31'87'86'2, 8955 6935,lt_industries@outlook.com,103.3,103.3,80.160.41.247
137,HARRISON HSIA ,mapshalftime,E0UHBC1LG5VUJ2T,UKR,1Gn1GzVa88T1X3fdhejyq6jrZs43T24xW6,3932285212,33'37'77'19,41'19'55'7, 6687 8036,cpfi.ltd@live.com,78.4,78.4,41.51.143.18
138,BAO STRUTT ,interrobangglum,6MECSCXVO0TJMIF,RUS,1Ea7HC4vLpUEtpZppYqjMekYVPSpDgdZ7,4621164325,38'10'62'27,31'86'17', 6755 2351,changying33@yahoo.com,71.7,71.7,36.207.75.48
139,CAMERON PANINA ,passedprobably,SDJNLF68H9H5W02,SWE,1M4pLzLhN4ix44jaoJpjiTYV58oRgUf675,363355111,40'14'70'27,29'91'14'8, 5347 9625,abdoul0000hamid@gmail.com,100.7,100.7,200.122.20.244
140,NINA MOFFLIN ,goombahmeanpath,B0UKKIMVE8J9QMW,BRA,1GDCa1L4Z8DBZQv8gWK8k1HZkMdFy4mbGU,395761190,41'28'99'90,32'27'96'9, 8540 2671,foreign_exchange@live.co.uk,103.4,103.4,193.28.125.14
141,DOMINIC ADDISON ,babyexoticism,CZ82ZFAF026039Z,GEO,1LQaq7LLoyjdfH3vczuusa17WsRokhsRvG,542699265,43'44'25'98,28'33'3', 4043 7058,hdcliveuk@live.com,106.7,106.7,160.78.215.127
142,EBONY HAZON ,trashyils,HMP9YMVXIVX93JQ,ITY,13YfDrMvYP2VZZyYMeEWVC9ubpPVCXPJDN,6682972075,38'91'23'17,35'22'79'8, 4997 5822,fatimahhassan1@fengv.com,115.5,115.5,183.84.2.39
143,LUCAS FRANKLYN ,computeride,G0JQ6TGZXPKZTV3,FRA,1EnCEb2mckb1QLEeokV883sDZAmoKFQFxF,1857968549,30'10'80'64,25'40'37', 4557 0333,mikejosephloanfirm202@gmail.com,86.1,86.1,22.49.227.139
144,TIMOTHY GAVRILOVA ,tomahawkstrings,H14H6CJSUNKY6O7,GER,1E6mijNx2xKzRt6KXiqZncUmybgYN4cn2X,3785526105,41'96'68'28,38'17'3'2, 4947 0783,skyebanktg@rediffmail.com,102.5,102.5,11.185.159.142
145,FATIMA SOLOMON ,newrybulky,E9GPTB0JXW0Y91D,BEL,1Ek9Jj3Z3Bnipe3DnMq2otXG5iNjze66VR,179675729,-3'39'13'37,26'27'3', 6780 7105,mrsbellafirm001@gmail.com,75.3,75.3,197.112.149.238
146,ELIJAH ADAMSKI ,presentmega,DDOGOJ8O0Z5DHA5,AUS,12gBLJcn9AY3y6NiWQdn5kfsNj3C3GHQsU,412677199,-3'80'81'98,42'98'9'9, 6115 4546,financtreasury.uk@email.com,81.5,81.5,236.236.154.147
147,NIKODEM CHEN ,webricklayer,28W26GXGRCOLB27,CHN,1JNH23J6ogcrABu6bvC9mUJcG9qFnLja1M,471660949,-2'62'54'26,31'87'86'2, 3951 0817,admin@senagua.gob.ec,64.2,64.2,107.151.76.211
148,SHEN DE ,bespawlercompany,5XVD5H247GBHEUD,MON,183ychAgpMawFf5mxDELJRJzco28bMgnVk,504532111,-3'33'77'71,41'19'55'7,,m2424m@live.com,98.1,98.1,153.137.17.68
149,GEORGE KOVALEV ,syphilispeer,J727GPF6HIP6M6N,TWN,1FdjFtrBwf9Jc9fsGN2GtHmG2vs5ZcEuWH,7036670908,-3'81'6'22,31'86'17',,stevewilliam197@gmail.com,78.8,78.8,189.146.232.11
150,CHARITON GILLOTT ,initlens,VT2NZIJC1XJSRYO,POL,1BstEGUM4cS2TsVMcf9wwBr9Ghx3EcT1Jt,883905019,-4'14'70'27,29'91'14'8, 4540 4399,mrmathew.martins@yahoo.com,64.2,64.2,67.1.212.193
151,ISABEL LEMMON ,cruiserickshaw,ZA2AU3PDH4D4KUJ,BLR,17ZnpjtLgFgjK2qUcaY27U1PcGySgten5Z,2525463013,-4'12'89'99,32'27'96'9, 8239 8144,benjaminwilliam917@gmail.com,78.4,78.4,239.239.248.187
152,ALEX HUXLEY ,crowssite,UOB03PMF67R5AUR,UKR,1CkdZXJtpbxxX4QAzbRhiFNU3PkcsUsFzw,267464002,-4'34'42'59,28'33'3', 6126 5249,abe.shelton1@lenta.ru,109,109,132.79.247.68
153,MADELINE JAWORSKA ,lipstickkennel,LV532ROBOY1ZOS4,RUS,1CaDNCkaMkcdog7JmCbFHBY7VBGjY9az89,7271938370,-3'89'12'31,35'22'79'8, 6140 3800,owengah@live.com,74.5,74.5,12.231.59.100
154,WISIA MARINO ,cultivatedcardioid,MKHBVTC6K3PPBPQ,UKR,19YGJq2n2e8HrFyUQtxDaX8CdWMuA5nR8Q,3767288060,-3'10'80'64,25'40'37', 6732 5123,dlserv01@aol.com,70.1,70.1,149.129.17.196
155,ALVISE GREGSON ,nurturedunits,QJPSUK6ALPRNEAF,RUS,1BVMFfPXJy2TY1x6wm8gow3N5Amw4Etm5h,2224225229,-4'19'66'82,38'17'3'2, 4582 8933,ee.apala@gmail.com,62.5,62.5,24.133.60.134
156,JAMES POLMARSSON ,lotmadison,YWCIGGPQ2RDJJ8W,SWE,18ULM1PvdLqEjoS7NVuUjGC3XCj8MPPk6m,928305155,-3'82'51'99,23'87'19', 8050 9021,bbcpaydpt@live.com,63.6,63.6,100.101.227.74
157,BERNHARO HOOD ,leukocyteslimy,7TPVS2D6XMX3MK8,BRA,1P2ZAuW9nUrFfwgVjfL2SA9sPXSruCfzp8,687863252,-3'53'70'80,34'50'78'8,,undpfn20114@gmail.com,93.9,93.9,119.158.57.254
158,TYLER BERGGREN ,bellaanaconda,Y8BSELU9FJSWCZ3,GEO,1MqaGYszdtzXF28eXTZHdUHfZL7kAZqJMj,1653818999,-3'58'4'69,36'11'52', 9477 8972,janievitek@gmail.com,73.9,73.9,218.28.244.222
159,LUCAS KANKKUNEN ,colgatepreston,K16HT4XONM9FUY2,ITY,1H4WSPKb2PYguFWEkPZdpa1a2ihtgciBZv,201123673,-2'42'79'4,33'16'68'9, 6702 8557,creditservice@careceo.com,99.4,99.4,233.89.184.216
160,CARITA EFIMOV ,universityeffects,PIMSL0S00Y6RHW8,FRA,1DCV7uLybUQLAarBXdwKSVVrCY9Z1KvJGS,4106634996,-2'71'20'39,40'70'62'3, 4064 4131,cying011@yahoo.com,106.1,106.1,53.32.219.78
161,VALERIE ARMSTRONG ,catchajar,6293ROTNOQJF4AY,GER,13JPo4FzHEwZLHxwDEmiwbSs75xFcM9Xnq,2955528897,-3'25'63'15,31'77'70'3, 9138 6757,christophe_gbeffa@hotmail.fr,111.4,111.4,13.255.213.134
162,CHARLIE NGHIOM ,ribbonkramer,I7RWWWPBC89F85I,BEL,16Q5zhKCMbpEkR43K6tgzdkh1mTUfi7SMy,2347119168,-4'26'42'98,37'31'35'7, 4549 6801,maracasinter@yahoo.com,75.2,75.2,137.115.228.87
163,THEENG MENKENS ,piggycenters,0CBOENJ7YPJ07VC,AUS,1VLZtmKa95BFrXHeyHEETAivJ22pTEhrT,408704187,-4'21'70'78,32'93'10'2,,iquad94@yahoo.com,80.5,80.5,10.239.229.96
164,ALICA SCHIASSI ,coachingfeast,JXQKSQ6R96S766E,CHN,1GYmGXayfaVbu9aKMMmC8j4JgLEE87yZgq,839319258,-3'91'16'81,42'27'67'1, 5307 5230,emil.jacobs@mail.com ,113.3,113.3,95.41.174.241
165,ARCHER MOOR ,capricornbowfell,ECV9KLGBE7050RH,MON,12owkvCcMPw5u1M692GbBFmpaMdX3kqXQM,104388307,-3'19'68'68,24'54'56'5, 4220-464,emil.jacob@mail.ru,84.5,84.5,129.254.166.193
166,ALI CUTTS ,clumpvagary,RKO7E0LPT6VGUPL,TWN,1DxZyTHbaKUg9MrqUYVAC3NSDFeaCmc8sE,3441799410,-4'30'64'94,32'87'67'2, 0586-184,mgremittance.info@yahoo.co.uk,110.6,110.6,194.103.131.182
167,LUCAS SELEZNYOV ,dustinnaked,FQT8KRDGG1XPP6S,POL,1J2NPGhidHNE2wTqoP9KxzKpu8eWtRCVLL,2819856721,-2'83'62'5,36'56'59'4, 9076 6777,raymondmorgan02@hotmail.com,95.4,95.4,75.249.64.156
168,ISMAIL DE ,parrotbanana,6BKPAA0WG4QZEKW,BLR,1CU33fX35WYJDNxXM5jqawQtVGr32QEGrV,887899218,-2'93'62'7,35'72'38', 6759 4932,mrs_sabahibrahim@ymail.com,92.1,92.1,168.56.231.185
169,NATASHA LEI ,rapidchestre,NO9P9F6MAG31EGZ,UKR,18E8CQjS31cmr1tFee8uoGVsHm99hK4Bjf,4787321579,-3'65'10'36,34'26'88'1, 4012 5809,drthomascole7@gmail.com,79.6,79.6,129.165.157.5
170,DEWEI LOC ,wisconsindyne,2AV7Z6V7SQG1Z8E,RUS,18BaBQ9G2b2CiYehQbjHu55aGo57pFxmDf,579192946,-3'10'7'84,27'65'90'6, 9034 3254,barrp.agbo@outlook.fr,73,73,17.55.108.66
171,OOM CARRODUS ,cocketleidle,3INYBD8633BN42H,UKR,1BMB272EM8F9RXaFszJ7nxxN8VNjoa3mYu,4227878144,-2'37'25'82,27'67'88', 4099 4224,mrsmorganhenlenloanfirm@gmail.com,81.2,81.2,174.218.71.79
172,JAI BROOKS ,prospectussialoquent,YF29E70936ZDO8D,RUS,137zjnSXZs7Wdhg8zCoAJHz3NPgX8WtPPv,647650444,-2'57'16'10,''', 6133 6793,barr.njdmdcggroup@yahoo.com,56.9,56.9,157.40.170.189
173,LOUIS VERCO ,surreyshirtsinbulk,OWPVNWAJW99JW2J,SWE,14CQ2jCrpsd1eSdC4zWsJZH9LvDr6GrCyo,7053004643,-2'45'52'92,32'26'6', 6734 7086,hknbddhb@gmail.com,94.2,94.2,176.5.240.81
174,SEBASTIAN EVENDEN ,fordoccasional,1ELEVAVGFK3RS25,BRA,13zHr5PGTq5Qh1GnwrSqRArSw9HCo8NoZy,2680128044,-3'43'64'72,28'50'79'8, 5341 1327,michelfoucault@outlook.fr,90.4,90.4,34.127.21.206
175,BAILEY KOWALSKI ,purplespark,GCXMTAIWSBLMN57,GEO,15yu58aPh9ZFhJWwZtxFbECwQkhJDWBRhV,272625426,-4'30'10'78,42'69'', 9038 7042,goldsupply@rediffmail.com,90.7,90.7,109.126.208.76
176,KRZYSZTOF BALLOW ,bridlemouse,PDVXHLCLPGQ4FDT,ITY,1MVLP2kRPNqz8VJUy83LstUoMQzUjgq4Zg,4410780115,-4'25'87'37,24'48'49'4, 5341 5091,dvdmumbai2000@gmail.com,81.3,81.3,81.13.80.151
177,SAM SHEEAN ,differencegel,9079DE5GCFRVQ8J,FRA,1H77o5TKTvpwozmgAfrQiNFwgEkjzshhTt,5649256608,-4'94'60'91,23'19'2'8, 9540 5328,mikefinance02@gmail.com,84.3,84.3,227.244.235.226
178,AUSTIN AFWERKI ,alnilammodx,ALFE5Z8DIXQX242,GER,1D6iTqvbgcqenbkKNsFsi9zN21KH4KPPEa,4777609375,-3'17'38'23,35'65'21'9, 8727 0368,fatimaalmuntasir77@gmail.com,83.3,83.3,249.38.119.134
179,KIROS EGGERS ,sammylugubrious,HFLT11P824PRDK5,BEL,1DaBE4vheSefEobnBk5bk2Da9vmGEoD3hv,693807938,-4'31'68'98,27'20'27'3, 4332 4394,sgt.brooksfitte@gmail.com,112.4,112.4,228.141.3.136
180,CHARLES CARDOSO ,rumormodified,KEACPWYDXB5YN4E,AUS,1DtFKiPdYD2U6XDZGtWK7q8JYVrDKBHBqE,8755745563,-4'91'32'91,26'84'47'5,,sales1@chemusa.com,70.3,70.3,165.86.98.246
181,DAVI TO ,jeansinitial,GK34VXS2Q8RMRBX,CHN,113324vM6NBar2q72w6iDCdQvPnPQw8Tvw,863506399,-3'15'56'12,35'40'23'9, 6211 5963,info@gloriabrides.com,87.9,87.9,188.179.239.137
182,THOC MICHALSKA ,acridcounting,Z32U57TQFQ5K8LH,MON,1MmcSBpzNYeGgSfVNxXEoBdpmsCxyMUuWW,162523556,-2'97'41'6,39'28'59'2, 6118 3418,worldbankdebtdepartmentpayment@gmail.com,110.1,110.1,190.199.174.173
183,SEWERYNA VO ,precedesec,H7NQ0L9LRCBDB1J,TWN,13oRbW4P5kYaSX4UXAyd5VsSYr8x5hX2Pv,391451308,-3'15'21'45,27'84'53'5, 5396 1795,creditsolutions@manager.in.th,57.9,57.9,24.178.140.224
184,CHE MASLOW ,pablostaddle,AEOGILKMI0AZBD8,POL,14WWrJMGPo43mAoLXoH53pREAEUAFFW66T,989793648,-2'28'64'3,35'27'16'8, 9811 5291,yagoseverops10213@gmail.com,61.3,61.3,43.64.25.140
185,FARID MOCKRIDGE ,slimytok,OV9HNP9TKWUHM58,BLR,1NT1jtYLNwFXLztD4U4B9sLizdYatirhWW,5734835927,-4'19'30'89,28'89'23'6, 4078 6094,fideliawhyte@gmail.com,63.9,63.9,193.168.48.39
186,RYDER WOOLLS ,ceramiclisburn,5AI6TU707DRFYYG,UKR,15vqKKx5LX6oc5TATJ7uJmbu55QvaLg3W7,6376030963,-3'22'38'66,34'66'4', 3265 5736,mrsrosemarykabila@aol.com,76.5,76.5,198.168.33.213
187,SEAN TERRY ,monolamb,2XJBHTIVK2CN04A,RUS,19QDGMRKdZ9BpDZP2Re6yaDqNQ7zN4wo1D,853009546,-2'57'42'53,29'39'83'8, 5399 8170,financetreasurylondon@mail.com,63.1,63.1,27.21.115.34
188,ARCHIE JOSHUA ,nethaninternship,DHP07KP2K8YJNZ4,UKR,15BKWJjL5YWXtaP449WAYqVYZQE1szicTn,6652797429,-3'89'5'34,34'77'23'1, 3610 7890,c.world@europe.com,109.3,109.3,47.32.150.93
189,HAYDEN CINTRON ,vestpark,7WYPVBBNK9FY3OP,RUS,1EGZ3HcxsG1Vf7YV355CGfN8eqZ5o6wqkY,4771784485,-3'41'69'41,27'12'16'4, 8842 9215,amarabello04@aol.fr,66,66,202.173.61.132
190,FLORIO GORSKI ,pagerkarma,4C6AE4UEJTE11CH,SWE,1JNamaC2PE4woAk1vaoW46e5pxgdQkaKnc,100776337,-2'41'77'64,33'15'98'9, 4059 7191,info@capacitybuildingonline.com,103.2,103.2,50.109.168.39
191,HAJNRICH UDUO ,benthicpolaroid,2WHLJBVIB9EAYL3,BRA,1J3St3rp3hVsuLGhegbLWicyPL3NRD3YJ7,3704811688,-3'33'62'81,25'28'87', 5388 7270,val.gh001@hotmail.com,66.1,66.1,105.183.255.159
192,JUROEK MORKVED ,rochescatter,1PYS7WMHLNGDAG2,GEO,14qdBdRTvT4i4QZ6iqRhrBj732x9EpoFQC,887127932,-3'73'37'91,37'23'50'2, 560-456,katewilliam121@yahoo.com,71.1,71.1,236.174.48.185
193,MARIA ROVONIK ,mutefluke,52DOS7AG1IB7OOP,ITY,16mEzobs4wQPuAMq1C8QSQafcDHvzczVcs,214951316,-3'80'85'34,28'17'3'8, 9352 4877,43anthonywilliam@zipmail.com.br,101.7,101.7,199.240.56.66
194,DAVID BURN ,pitchplage,9ZDEQS9ZGEBHH6V,FRA,1PxeCXMZBuXHt4CqWWEQ7Kwgdyob9P955L,6506828161,-3'42'26'96,35'92'36'5, 8390 5776,davidmanchester422@btinternet.com,91.5,91.5,141.219.60.62
195,EDWARD RAMOREZ ,corpscore,5JVATWAM6QYATPT,GER,1ANwcnUZVPAYSdTyWqf2Z1y33iXVqC6gXo,936562684,-3'33'65'74,31'53'14'3, 8364 5339,stanshawnent@gmail.com,63.4,63.4,181.191.147.250
196,ARIADNE O'DEA ,anthropicscrawny,RZHRMB2108ZRCJZ,BEL,12vZGymxSfbXmYB6tHYS4oM8kMYYBxDZHx,382848810,-2'97'87'59,43'16'3'6, 9062 6478,alhmed5555@gmail.com,96.2,96.2,139.103.2.173
197,LOLA CLANCY ,vanroman,BKHUGE68U8VI8OX,AUS,13ACvVSUKeQ57zBtENsJtHManPTJ5sZuRw,7878265267,-2'30'93'19,35'45'69'2, 4046 8242,muhasebe@isiltan.com.tr,97.7,97.7,81.14.103.165
198,EBONY DUNKLEY ,shelterecdysone,XRU8B17QVSF16X7,CHN,1LAbQ5492wSLxRc2jiFgi2ZgoqRgUG8gHa,956217826,-2'47'65'54,32'19'42'1, 6276 2647,fbisecuritycrimewatch@hotmail.com,78,78,131.65.163.74
199,JAMIE GOJA ,bruleeluke,F6K3EOH8RB62EI3,MON,1NS17iag9jJgTHD1VXjvLCEnZuQ3rJED9L,238079562,-3'22'64'92,36'96'16', 5396 2270,leebkk@qq.com,115.5,115.5,60.9.222.53
200,BEDOET THORNBER ,meshmelting,MLGVJYLSF37XYBZ,TWN,15UkFYLMs5nytwiKWqGgkkVo1fjLFAeJhs,329303414,-2'45'35'37,42'85'47'2, 8304 0846,dadagold225@gmail.com,65.5,65.5,167.30.203.33
201,TRISTAN INNES ,firearab,WB110HGCAOF3EV2,POL,1GkqY6YQB6WKC9Hjh8oP8yojDufDYRCXkq,674192729,-3'65'40'28,27'78'51'9, 9069 4660,mrs.angela-de-koenig125@outlook.com,92.1,92.1,139.90.152.108
202,AARON OINH ,barsattracted,DGX8CG25JZ6HM7I,BLR,1MV87vYAro4oQQrSvnFjn8JU8pKra1C7YG,8219164972,-3'57'52'65,39'91'1'2, 4684 8031,christianbrown2021@rediffmail.com,87.8,87.8,203.251.180.97
203,THIOT TISDALL ,pologaff,C34L2NSZKKSOZK5,UKR,1J4yy8MpZfzJb9KA7X7QCu1tbnHuG4B92S,311320104,-2'42'46'75,23'32'54'8, 4084 1832,fantasyjaan@gmail.com,99,99,130.254.90.58
204,WILL BRYAN ,peasjingles,4N7KSDPIOA2YCE0,RUS,1MsgeQMDKCqoPRfKT1tw8gGci6w7fCBtKe,267241925,-3'66'87'33,34'42'39'9, 5691 6292,Kimchao@powerstar.com.cn,75.1,75.1,200.108.42.123
205,FINN AZAROV ,biotaevie,23O056F6WBIWXDX,UKR,1MKWhQiD18k5jh4BoHsNewDytWWy2sJDME,1581453817,-2'66'41'78,33'67'53'2, 6125 9434,abduallaharadsamaconsultant@hotmail.com,95.1,95.1,255.12.108.1
206,BORISLAV SCANLAN ,birdclean,HCDH1X8P7HK61JL,RUS,13h4WkkyzttKDzvVURhAdkfXSNEKLDRbnA,681121254,-3'81'25'32,42'97'21'5, 9030 5278,freddyloan02@gmail.com,63.2,63.2,11.208.239.88
207,SAMUEL BAOW ,codaseagley,MW8FH14LBB4OFWM,SWE,1BmU4dAJAKEaDuj3Eswc66UxjbHWdVWu4F,233691758,-2'84'81'85,28'52'98', 8771 6112,worldnationloanfirm@financier.com,106.1,106.1,47.171.167.245
208,VE HO ,chiefthrushe,NXPBJI3E3EPLCSS,BRA,1E6yDbscpMS6mmvUGu2s7ewbiWeR9T4ToZ,370335260,-4'90'23'53,27'78'77'6,,onlinepromotion.lotte@gmail.com,97.1,97.1,154.216.231.253
209,FAI MACCARTHY ,spillingthing,DAN51Q0JATI9K3F,GEO,1HLpRZ8uW2hrrxbJFHUWeUsLvy9L8L63ne,574606238,-3'18'66'76,27'38'37'7, 5346 4215,coke.cunit101@clerk.com,65.9,65.9,22.147.157.106
210,SETH PEARSON ,stiflerelieved,OL8Y8JQARNFAOFL,ITY,12wHYjaPmCtAyorBMQcnJx24ifjZPSy7L2,8991070922,-3'15'49'63,43'31'0'7, 4590 3028,mrs.sandrakorjev123@admin.in.th,96.2,96.2,174.222.89.207
211,MASON MORTENSSEN ,hangingbandage,YTW4BLOIQYXE4MU,FRA,12Xds1x9wMgJSAmpnchFQrg5BUPHbwJ3ec,9383924144,-4'31'79'90,33'58'5', 6296 8134,j_quaye201@yahoo.com,51.5,51.5,44.1.146.72
212,LABAN HARTNETT ,wryfizzle,4P0O6IBU98EP6TF,GER,1KmaiBSWEwmLcmq1TZzEJqwvmchS6t2n3E,2030152579,-2'87'56'55,33'83'72', 6192 7373,manager@sylt-photo.de,65.6,65.6,112.131.109.94
213,OWEN TSUI ,alkanesmuffled,2JEFDQETJGFHIVV,BEL,1DaCk8Y5gf654vvbv6eNMPsqkF1eegjNaQ,472395742,-3'91'93'10,43'27'56'2, 5379 0356,robertwood.johnson@live.com,73.9,73.9,243.175.143.10
214,BO MURPHY ,updatedauditory,AGLEQ73J0M13AQR,AUS,13xN2tgsft8jPut5PbSzYMzp55zZDYW1mq,445882387,-3'37'44'46,33'31'56'5, 9026 7969,robertwood_johnson@live.com,76.8,76.8,136.51.173.184
215,CHELSEA BELOV ,eggyprism,QGXKOC9SRIQVTAE,CHN,17ou48rFvABiLPz8RtqpUFVKjJq4megopF,916342972,-3'35'96'59,30'78'66'8, 6791 5095,oliviababykuku@yahoo.com,71.9,71.9,198.114.246.52
216,KONDRAT LANE ,chinchillalancaster,SRHUCKUW3KQ20AH,MON,18otN4CVho6rYNNsX38DXN6SmgyHrJb9vi,5424613527,-3'45'51'70,36'46'72',,westerunion623@yahoo.com.tw,76.3,76.3,83.44.96.209
217,JOSHUA DWYER ,protoplanetprideful,BUL4HGQXIK6ZRFO,TWN,1A3iRH8xRhsPsLTcn7vq3echdnjpqp6Ptw,645045829,-3'97'99'29,23'12'43'4, 4979 8750,carnivalcareer@globomail.com,71.1,71.1,35.2.91.61
218,AUSTIN BOI ,accessibletomcat,6AP94MMFF7O28VM,POL,16dEFWwsWdYTqpuavkEN1pYEtL9YPe1UWw,3590721421,-4'23'33'48,41'49'0'2, 8741 0654,carnjob76@wp.pl,80.6,80.6,240.94.72.135
219,KE COCKRAM ,fairybuyer,A7GFD7KDBYXMAKZ,BLR,1FrGUN1UC45FYcRT1rjU7rb6h7bYg7bKDp,6053712337,-4'30'12'79,25'95'1'3, 4981 0056,ledwall2000@gmail.com,73.3,73.3,25.234.99.236
220,CHARLIE SCARFE ,emberboo,K49I09RBVXHYEXL,UKR,1Mjundq2zvjzRKy6VbTfPKsAZhVZe4dLtY,8478774378,-2'51'56'2,33'87'24'6, 6644-595,emily_sommerjones@yahoo.com,93.2,93.2,34.118.58.255
221,DOMINIC LUKE ,recoveryfairy,B5Y18VQUMUDKTUG,RUS,1JaPNwMXt2AuVkWmkUHbsw78MbGorTfmm2,706547594,-2'98'27'88,35'49'21'1, 5372 2009,leosteveloanhomes@outlook.com,71.3,71.3,184.239.97.74
222,ASHTON LANGLER ,cubicpub,9VBRMTUTKG6E68L,UKR,1Bx8pSCW9Gzyvf1EjkeHJM5DpA3ip4At9h,9640588296,-3'84'48'31,39'20'99'5, 5340 3845,hesterstephenn@yahoo.com,87.2,87.2,239.214.205.158
223,DAVID JOHNS ,interfereblizzard,FDUP80H1U0X9W1L,RUS,1NB3ZXxs3vfq1hRhuSAZ3zPdQNrXBQB6ZX,7120930028,-2'54'42'92,38'36'99'6, 4031 4009,nenitamartin40@yahoo.co.jp,72.9,72.9,112.48.52.47
224,EET LOI ,deciphereasy,7BA3ED77K8YPO82,SWE,1DWQ6tDZaFiBxAV5Gm3JQCZAJQQ9kU9VfX,4396001746,-3'77'46'19,26'38'34'9, 4505 0156,michaelc494333@gmail.com,79,79,142.161.187.151
225,FRANTIOEK RUMBLE ,foolcatalytic,MOIAIFMOIHCT7GT,BRA,1Mnc9YWgfSyyut8wdKDNznYhi2NvYnsqCw,402924738,-2'31'89'49,25'79'45'7, 5372 6494,mohammed.al-said@live.com,75.3,75.3,18.17.217.32
226,BEAU CAMPBELL ,ladykidneys,5KBT8YNH81H3QAK,GEO,1Dp1yVTFmgb6oL5WoNVsLsZso4ATMzxD1M,5612157177,-2'42'43'25,29'14'99'6, 0907-420,mohammedalsaid62@gmail.com,66.9,66.9,162.249.129.186
227,CONNOR WAGNER ,felsicflagellum,T9L1JUPWNA9BPX8,ITY,1FXavuV1rjJicYau2md7pa22Q3P4HEcMLN,6829312213,-2'37'78'69,31'14'39'7, 4054 0403,evalaboso@yahoo.com,76.2,76.2,197.73.75.69
228,NICHOLAS BROOKS ,buttocksfinagle,JDYIWYUM7PNONH5,FRA,1N5ACP9k2wRUgC3siFRu45MoR9Xkvb6Wmc,6389423497,-3'90'90'48,23'77'63'8, 8395 1666,abdulebrahimhassan@e-mail.ua,98.2,98.2,217.44.173.106
229,PHO MENG ,stalebill,0QWGGFV6XS9YIG2,GER,1KiQNazvLpchWb8rZx3VqhyaE56PXxcuYB,395830230,-3'58'68'90,36'61'46'2, 4597 3309,zenithbankatmdepart21@yahoo.com,72.7,72.7,51.71.149.153
230,MUSLIM BROOKS ,cheesecakeban,5DYNKEPOQJYELL0,UKR,14snSY4g7KcrmT34gRwo1yeNT4nrDa1X45,5592923651,-4'83'45'94,28'19'40'5, 5397 0840,larrymooreoffice2013@gmail.com,103.6,103.6,250.4.206.120
231,ZDENEK CARDOSO ,saturnmckenzie,4K8BLDH5P1WM7BB,RUS,1CPT8ZiuH5ZwpUaa8igyHMHJaGL6T1Sj9q,8760279095,-3'80'25'95,30'74'51'6,,larrymoorehdoffic@gmail.com,73.2,73.2,69.255.117.184
232,FOBIO CHIU ,belfastblink,65GX5SX1O2RP0OC,SWE,16puZpuLc9oefka8wiNCj7VZeAksFkXtu6,982175973,-4'14'56'96,39'61'54'9, 4527 1110,larrymor@post.com,69.6,69.6,162.194.150.8
233,HO MARCONI ,assiniboinechevrolet,BVVFU5B93LXOIJY,BRA,1CRK9JRbSE9VxY2LF6ZHwo3FxrAKVzTrum,9710670042,-3'81'13'9,28'41'20'9, 6767 4495,rob.bunch@aol.com,80,80,198.173.92.126
234,CODY GREGOR ,tananaeducation,GAGINRXEQ2E01RT,GEO,1BYabRVCR6rNjh6dofAzHi11DrsmMXWA85,5699559183,-3'72'54'48,42'13'15', 8382 0342,webindia2013seo@gmail.com,81.1,81.1,80.182.119.55
235,ARCHER RIVERA ,adjustablepencil,GR8RVZC9FV3M4GS,ITY,19MUTAELCHaBLG8NY2tJ3zZgZdzME6Dv8u,597990883,-3'85'78'34,35'48'31'1, 4306 3814,shahla_kazima@live.fr,80.1,80.1,165.143.36.171
236,DELFON EGGERS ,fillerskinned,ZHIOF40L6R69IKD,FRA,1GhaSSLP7QEWEYciTvE4atCxuumnWiT5uq,184244242,-3'55'99'44,37'78'1'7, 5722-497,bt.comms@bt.com,100.7,100.7,95.6.181.94
237,ZAC CARTLEDGE ,poppysmicgrilling,NOZNB930FMK49WU,GER,1FUUwhFjjQ9pnzw1bzgByR9DZYPwpyhnsC,750779969,-2'44'31'53,29'31'77'7, 8206 2272,rolandloanfirm@outlook.com,77.8,77.8,1.210.156.10
238,NATHAN REPIN ,cricketfreely,58BCBE0DT9KCEMP,BEL,1Hq1kJCu53ciz2FwGYv5HFwo5b9XDdPHgB,3982310296,-3'67'38'21,34'54'29'3, 8769 2498,ukcocacola_200@hotmail.com,78,78,33.221.67.59
239,LUKE WAGNER ,torteangstrom,WNQU4N1EYW56MIL,AUS,1Bdpa1W9ENNBiKgntxqU2816Cp8zuMJSTJ,973044055,-4'22'50'91,36'95'43', 9009 4973,sulalmuhadib@gmail.com,81,81,85.219.28.24
240,MARKUS ANISIMOV ,sabineplubming,GEE7L9DT6T0WUDG,CHN,14xv6wwoMdSRpRRmokgbNU6cJh5B7krVnU,8230347646,-4'80'47'13,39'14'18'9, 4536 4700,www.rbi.in@outlook.com,71.1,71.1,90.202.168.69
241,ANATOLY HORSEMAN ,couplingsow,M4VBIQ68G1E6L54,MON,1Jwt4e1QfhNYAn5W87KU5KakUsuwQgTTo4,567293165,-3'50'71'61,34'25'47'2, 4544 6892,clet.adams001@gmail.com,77.8,77.8,18.51.189.228
242,TIMOTHY HIPKISS ,urinalassets,E37EDXKWIN27WUB,TWN,1KVyYVs7qbzuZt4s6M1hKRwtQZm2QQZLiA,774837381,-3'62'93'19,24'53'30'1,,maayricedo012@gmail.com,94.8,94.8,139.86.67.148
243,DEAN TSAO ,chadlimey,JVX2V546GDESW3P,POL,19TPcEcb3FM9CnqBAHfK2kT7Ue6LKJD4KG,8538020439,-3'86'35'59,22'98'94'2, 3856 1429,lindaechols3@gmail.com,46.2,46.2,209.52.204.50
244,LEI SCHULER ,icerinkpushy,99YBCVVYMDN37KS,BLR,1HZNsUqQxKVLmfPfCAzLwrnVDzx8CxwxnM,992503574,-3'32'95'46,23'11'29'4, 8339 9897,elizeerbethelizerbeth962@gmail.com,101.7,101.7,6.195.146.56
245,MAX LUSCOMBE ,wellingtonwear,FAP0WF9GVQO8QG4,UKR,14Eo7CebKpMeiobNVdnahbpEWtbriiYoTA,455485941,-3'42'12'59,26'88'34'4, 5327 6013,elizeerbethelizerbeth1962@gmail.com,53,53,34.208.205.157
246,OLIVER HATELEY ,nerdcallisto,V7HBYAT0GCCPV81,RUS,1EJ4rCeYCrgZZBYc1zaCVovjZNjk49RGo2,412806207,-3'62'79'99,32'15'44', 5393 9834,fmensah48@gmail.com,92.4,92.4,148.146.193.186
247,AUSTIN PADBURY ,switchobnoxious,9BTMN42NI02QCR3,UKR,1PdSv4K7zbjTArEQZYzRs4Gq3UnSzEZMjS,768127882,-2'81'9'24,23'32'26', 4928 0152,robinson_d92@yahoo.es,74.1,74.1,23.133.13.10
248,BROCK FOLDI ,golfingdotnet,VNLWE0AZJ48C14U,RUS,1J2MBfr4Ss69F5cyvPRL5Qg8Ff8pRzWaoY,202921247,-4'30'63'22,27'32'71', 4591 6175,howardstoutt@gmail.com,104.4,104.4,64.230.73.155
249,GARA MARDEN ,pumpkinsiso,RBEXJ6HG8G36P3P,SWE,1JSxDnLYD4XKTQ73N7in2M9XRovw5LANiu,671413449,-3'29'12'26,33'26'20'7, 8223 0115,starglobalt@gmail.com,60.3,60.3,7.90.207.222
250,EDWARD COGHLAN ,unalakleetribbon,E3IIDENLFE0EVLF,BRA,1CBUuXp7WkdCB4oXdRWeBUAL9svQANycvt,692450785,-3'50'62'16,22'87'36'2, 972-345,info@capacityafrica.com,66,66,95.1.252.186
251,GABRIEL KELLAWAY ,gutsettle,VZZ13UEZRVYND2T,GEO,165JPvFVSTLqV8seGzY7mumNpzysVSoTKc,4859064631,-4'22'50'11,41'94'4', 9019 1570,efccchirmanibrahim@yahoo.com,77.5,77.5,104.76.62.75
252,TRISTAN MOREY ,gaynantlle,M24XIM4ESTYSISA,ITY,1JKkR1fSQKY6qUGHdNrD9wzTavButq7AWp,870276999,-2'94'72'95,42'76'27'5, 8222 2443,a.salam2014bf@tera.com,82.2,82.2,162.162.99.209
253,JACOB CAMPBELL ,dessertmiller,WFZDLLL83KRYIME,FRA,1Bu3Rf1t22MMTGGCco9Hg9nKSVumjXUE7X,306442698,44??2??8,43??3??3, 5380 8256,abushadi001@yahoo.co.uk,65.5,65.5,107.16.174.69
254,KOBE YUSEF ,multiplehelps,DU2N1FWOP5Y9EIA,GER,155jL6yZpC4vTZ5po3MZFeY1Qdg6dD9rX1,377781991,-2'36'55'59,26'76'74', 5353 3351,abushadi003@yahoo.co.uk,74.4,74.4,5.237.235.39
255,ABRAHAM TAN ,genredrive,XJQHQJ0LES6QIAT,UKR,1rqA6iteBVryQV3yjF7DHR3Mew8PhxNV8,7972078947,-2'40'81'3,34'56'14'5, 9424 7518,musa_mubarak@outlook.com,70.4,70.4,73.232.233.74
256,XIONG SATO ,serviceweight,JSOUUM77R5DA5V4,RUS,14WeToVbjbByAUD8GGHRU9BJGwETBFLPKT,559033060,-2'75'82'68,29'96'92'2, 6255 6689,amoskojo1010@gmail.com,76.6,76.6,185.39.227.174
257,JACK SOUTER ,tennesseedisguising,VUKT9124U98N42N,SWE,1EcJrSJTGmrhHYqxFwGjcWESEDTMwTyTEj,828518068,-2'77'51'96,33'97'25'4,,gordonlewisacessloanfirm@gmail.com,79.6,79.6,150.15.14.96
258,TAJ FULTON ,mumhaweswater,64R8ABHDUGCT211,BRA,1EYFJBtNfhgKcvcL5a9ehxCcgBpTaEFMJE,7664068959,-3'44'75'88,24'94'45'1, 4074 2849,busguyasia@gmail.com,71,71,228.146.116.169
259,RYDER HOARE ,culturechesty,CY66K5DPHTDWEQG,GEO,1PpLbwQJdKA5ugvJRGLBNYFiGttCmFkWjj,657734691,-4'18'73'8,40'62'63'1, 6209 0416,ranejack772@yahoo.com,103.9,103.9,3.20.6.194
260,MARCUS HAMILTON ,intelbuilding,MBZMXM80IYEMZO7,ITY,1FhLExX7gBeq3v6qiMSe5KXrKVwKxZSkbJ,254578691,-4'29'86'24,43'72'11', 6260 9581,mrs.sandrapatrick1@outlook.com,90.2,90.2,5.199.105.209
261,CHARLIE SOKOLOV ,searchalarming,AGVKRG0MRQM5ENO,FRA,14dEZra1nBGc1tcH6vVqm71XR3F6vKtk1i,2922266257,-2'95'36'39,32'39'77'9, 5392 5763,robertloanfundstransfer@outlook.com,105.7,105.7,175.117.174.10
262,LAWRENCE PARROTT ,passagepatch,RRK0XBHOP1EW5OZ,GER,1LUsZV2duGXAHdrGd38KAFQyYQXb1giu3b,184441439,-3'96'15'0,29'45'56',,successgail555@gmail.com,79.8,79.8,93.34.106.20
263,LOLA BERNACCHI ,vegetableeskimo,KJSQYRDQTJITUAK,BEL,1Lt24iHysg4wQA9BGtTvYZ5jG5Sqi7rHCi,569554292,-2'86'62'88,25'14'39'2, 6240 8849,mrswafawafaaa@live.com,100.6,100.6,95.106.74.32
264,FLYNN LIAO ,psammiteconsist,SN925IK51Y8NWGG,AUS,18FgA93HHyGHkkg2smBav2e94VuefDsXN7,9258250079,-3'89'8'71,22'84'59'3, 9588 0693,andyakim2001@gmail.com,77.5,77.5,190.96.20.171
265,GIOC FLOWER ,eyelute,LTHQWJKMASQ38A7,CHN,13UqYfhBwwoSZ7DG8K52X1WQrnk6XcZdzm,3092040708,-3'98'17'52,40'26'11'6, 9001 7773,jenniferjohn536@hotmail.com,102.7,102.7,236.210.70.26
266,THOMAS FAVENC ,wellmadespringfield,MCIO9U73T59MDO6,MON,1Bf78poRZx3w1gic9f78huCev1YDMaDMNa,871143917,-4'27'52'2,24'33'74'7, 6264 3127,jenniferjohn536@gmail.com,112.5,112.5,154.99.148.63
267,KAI CHUTER ,diebiscuits,EQR68L152WN9GA5,TWN,155BWJVfvVhUXsHG6nKu9ZFswv3oEbJJMk,947393544,-2'99'76'85,39'93'91'1, 4532 6723,mubarak_almansoori.ceo@live.com,63.4,63.4,247.204.66.138
268,LUCAS TON ,threatenioxhost,AYD4P8I2GNTMGN4,POL,1ABF1PwZTT4GZCdAPuHF9NSsy78ca2q3wW,464459893,-2'80'44'21,29'43'80'6, 6758 0895,investconsult2@clarofree.com,58.2,58.2,110.99.84.139
269,MEN REFSHAUGE ,uncoolharley,DJLUP65JA5TY0ZD,BLR,1BVe4z4dtqdNJ56Vx8k9ntuD1ine5vKQAL,2330548141,-3'19'18'46,33'83'69', 5337 5630,wilfredkabore03@aol.fr,111.1,111.1,52.245.165.12
270,ZOE RHODES ,footprintsspiky,002Q8UCOKP14WLJ,UKR,13FKHnREotr4jrjiSJwPUpecogVT7Rj7bu,9423002501,-3'55'31'30,32'39'43'7, 5632 7446,petermarriott166@gmail.com,75.6,75.6,122.247.243.182
271,NOAH DYMOCK ,irregularample,2WJ4ZHYQF3MET4H,RUS,12ub7BvRSke9oqGLVUbLVnELypUQRrzGRU,186009623,-2'63'66'86,24'31'', 9728 2695,adrianbayford@newsletters.pw,74.5,74.5,200.25.208.153
272,HARRY EVERGOOD ,retortquibble,2OW20OAY54ZI38Q,UKR,13k83ifQTnUdW99hecp3YMD8qNuXFBA7EW,6278418215,-2'95'18'40,30'49'45'5,,Attonyandy114@hotmail.com,66.7,66.7,156.148.92.80
273,HUDSON WINTER-IRVING ,teenytinycatering,L8IBUAO4W1GZSGH,RUS,1512jpPb1VDeFMApALiPjNDeyEMdUQU8yz,3598166915,-3'57'70'44,33'91'2', 9327 4748,attonyandy113@hotmail.co.uk,82.8,82.8,21.44.53.214
274,JOSHUA GIFFEN ,bowerdashboard,4KW7GNSBZPGV1YI,SWE,1KKmyfaj4HY5R7hEui5S1ypWU8hnjNBE7K,5215837317,-2'97'1'86,41'35'63', 5312 2919,robertwood64@live.com,60.1,60.1,156.244.114.59
275,JORDAN MORDAUNT ,briskhazel,95BFXPZW8EOYVWC,BRA,1DS5WKcZV9QujusSTNX5igiSzJnnyKRLeB,174760825,-4'96'2'42,26'49'4'1, 5310 7569,mark_grant2211@hotmail.com,96.1,96.1,102.252.191.157
276,JAYDEN WAGNER ,rigiddare,AL6AU3JH7BS0LA4,GEO,1G9BjAFRnSdCaVzdVMXYMd43CzTZ4mx6Qj,824930185,-3'96'66'2,31'87'37'4, 6766 1158,wunoffice5@kimo.com,101.7,101.7,213.205.187.227
277,JEREMY PROUD ,carriagebrockeye,UXKZCI0ZPNSX6O4,ITY,1KNxYaLy5HGZmKGH8NzJzUVhomHg84d2y2,9977723516,-4'47'83'50,24'16'22'2, 9009 1581,abushadi001@163.com,97.7,97.7,57.67.72.10
278,KEIRA NEIGHBOUR ,phoebesnotty,2J3KCJZJVULWPW2,FRA,1H3JocD18dS2iPQvVF1p9NNYhX3Vd21dbL,1286597293,-4'13'67'87,40'26'16'4, 8604 2338,mrsfaithelena.loanlender@gmail.com,69.2,69.2,109.0.19.70
279,CODY GOSAK ,voltmicroscope,5TL427K209ZFGF4,GER,16MDruJJaKp7iTXmQ5npFYxyTLfyDEVXyh,830128913,-2'77'78'83,39'13'13'9, 6797 0191,sambolatemple22@hotmail.com,101.2,101.2,6.48.226.10
280,IGNACIJ RUATOKA ,hyperionalladale,J37GGMPP37JBUSS,UKR,15peGup2HVXUYYdkFmiPLgmg8XX5Ex7jAS,9547113844,-3'10'68'26,23'13'85'5, 5399 5907,sambolatemple112@hotmail.com,102.1,102.1,153.185.21.59
281,AMELIE QUYNH ,montgomeryunderstood,47VQ2CU3Z3KBKDJ,RUS,1Fmp8fvEmTxBYJF7YTr6igsTV3DBWSERKj,570239796,-3'95'51'77,36'84'4'7, 9675 5904,gadaisha02@gmail.com,72.4,72.4,202.12.231.23
282,NGA KRISTENSEN ,shelvingpowdery,8MP1A3SNA1EUXFC,SWE,1ER3nEZFqXUkKw6AucHnmPxXnQQ8F6SJEG,338565272,-2'72'69'4,25'50'31'7, 5350 7926,mrsaisha1@aol.fr,81.8,81.8,213.2.43.202
283,APUTSIAQ MORTON ,basketeightmile,0L8QNPYEH5CK0UB,BRA,1NFx9FETuduha8qJ6ehPYufTqVirB1Jf1D,868327964,-2'86'60'50,26'65'29'3, 7625-6406,evlynsmarth@yahoo.com,103.4,103.4,211.219.135.137
284,PATRICK ARIAN ,summitstarveling,XNZBXWOGWGVGP1B,GEO,1JEMGVcpyuFBc8a9qtvkd1CjoSHKsTxs1e,944631002,-3'46'95'72,42'70'93'1, 6747 9584,luckywinner@online-mail-service.com,86.1,86.1,34.234.163.240
285,SAFIYYAH BINNIE ,icingcurd,I5MKKPAGYQ1E491,ITY,1CWCrnNi3kWwjvVzsF9LSyJVV9gdp1KYGM,1495921700,-2'60'86'36,37'58'19'5, 4055 3027,emyjean26@zipmail.com.br,94.5,94.5,45.186.93.172
286,MICHAEL KOSA ,cheshirebreathe,Q6QETXFCUSY9QRW,FRA,1K5Bg8JqxruVs2bsm7azxqqZ2K1ZwEV2nS,2239991488,-3'68'45'27,-2'21'31'6, 8297 7924,attorney_calder@hotmail.co.uk,68.7,68.7,116.230.76.125
287,BLANKA LIAO ,doughnutparksville,9I1NLLJISZQ75DF,GER,1JByFXm2x2SdMzzPzfNwBeHyYkueZ6SmCv,5049964210,-3'19'25'11,23'48'23'4, 5312 0561,infoadhoccommittee002@gmail.com,102,102,227.63.6.13
288,GEORGE MACKRELL ,smokehunter,6C6H26NDRCQW7T2,BEL,1DXnCCDog6rCfGBrUTFw56jkMRN2J7Evbw,7299520699,-3'16'51'80,28'92'71'8, 4591 1165,officemails2012@yahoo.co.jp,91.1,91.1,230.133.202.130
289,SETH STEVENSON ,venicelagos,8VPFC6W9BA7ADFD,AUS,1ELMcoZFxjfdE7WwKKfvm159UnSLr6KmUv,6966449008,-4'19'93'81,41'27'19'1, 9637 4653,securitiesbadburkina@gmail.com,89.7,89.7,162.239.77.43
290,ARAN WALLACE ,violistsafrika,3FT75OJV7IHMU2A,CHN,1AVuzuudoRz9sJBf2cSjnWVPBdQCCtgWXF,7249994514,-3'50'50'0,33'41'45'9, 9637 4653,donaldlawsongrantfoundationhome@outlook.com,56.5,56.5,39.5.181.184
291,ZACHARY HUNT ,traybakesubject,B8X4R2K8CSR29P7,MON,1AWe32boSBj88Uxvdu4nnVZffZ3oPeLits,161832415,-2'70'64'82,30'46'4'2, 5329 2569,crrkk52@e-mail.ua,77.5,77.5,28.203.77.237
292,LUKE NGHIOM ,entertainrobotic,U6B23HHKTJ4C2IY,TWN,1MAzruMU4JmAab5uKWggiZk8LyCzqkQBhN,796906491,-3'62'69'9,42'22'9'5, 6263 4851,crrkk51@e-mail.ua,76,76,21.125.235.250
293,MY LANGER ,zoilistrothwell,3UMDAQNDRJZ9YFJ,POL,18ihEZW4jPWkFkMmhWHYWDtUUa7ZWMUaGy,729250865,-2'70'93'4,35'32'97'9, 6104 3696,wumoneytransfer@yeah.net,61.9,61.9,36.250.52.163
294,DARCY DISNEY ,aeriezoe,3LZJW0CMCL2K9K8,BLR,1Au1uZnK87eUMoJKRL9S3wroM29AiUQtL5,2867901472,-4'48'25'80,42'35'41', 4034 6525,lauriercampellloan@globomail.com,58.9,58.9,9.198.71.70
296,AN POWLETT ,tastelessalydar,UEOBWVH6B7EKAS8,RUS,12rMpw5HnEvAw3nQqLmRBCQyuktfpa4eVw,3717543652,-4'87'78'41,36'21'7'7, 6736 6420,mrsmelisa111@live.com,105.2,105.2,106.184.118.191
297,COOPER BARROS ,rocketmunted,4W245HQIG0X8XAQ,UKR,1GL6JssydA6ueTFAPJQ9DU8pfQMZA6tQTD,833959743,-2'31'28'89,34'59'84'1, 9032 8217,1261914776@qq.com,74.6,74.6,160.199.184.206
298,MATEUS CH'IN ,supervisorcar,5ILRPKTXN1V0RDZ,RUS,1HZH6zHri1qc68s34MmE5MwG9xstbkFavo,5234802191,-4'24'77'87,35'54'55'3, 6732 6101,y.msn87@yahoo.co.uk,73.4,73.4,79.152.14.69
299,LI COREY,giftpassing,XIZSOXTO61R3NGZ,SWE,1L4NcFCdi2aXb4ic4fvHCF76CS45r1A7Qc,607101636,-3'41'20'42,24'91'61', 5672 7055,mr.usmambuhari@yahoo.com,70.5,70.5,161.67.60.108
300,PRESIDENT NGORDOV,General,JV2X3ILIRWOASNR,GEO,,,,,3171 7131,'ngordov@government.gov,85,102,
301,PRESIDENT GORDINA,General,853CRD35UZWF0AF,UKR,,,,,4214 9122,gordina@gov.ua,91,85,
302,PRESIDENT OBAMO,POTUS,1Z07IO5W3O4M7C7,US,,,,,127 811 121,potus@us.gov,109,85,
303,PRESIDENT ORLOV,TigerMaster,JH12LKJ1H2K1J2DW,RUS,,,,,9212 8210,orlov@gov.ru,90,83,
